satname,norad_id,inclination_deg,eccentricity,mean_motion_rev_per_day,perigee_km,apogee_km,l1,l2
STARLINK-1323,45553,53.0343,0.000442,16.01838118,266.39031839650943,272.26667789687144,1 45553U 20025Y   25279.57681540  .00481186  11409-3  82814-3 0  9994,2 45553  53.0343 358.8713 0004420  38.7566 321.3781 16.01838118301682
STARLINK-1325,45554,53.0614,0.0006999,15.49469882,413.51898298328797,423.03260160994523,1 45554U 20025Z   25279.46145243  .00082401  00000+0  14645-2 0  9992,2 45554  53.0614  13.6742 0006999  17.1849 342.9395 15.49469882302770
STARLINK-1327,45555,53.0539,0.0001291,15.06407106,546.295719470153,548.0838388445318,1 45555U 20025AA  25278.81626524  .00005469  00000+0  38565-3 0  9994,2 45555  53.0539  61.8705 0001291  86.8823 273.2314 15.06407106302025
STARLINK-1336,45557,53.0411,0.0001449,15.96188533,284.0392281416471,285.9702066113432,1 45557U 20025AC  25279.53893884  .00358959  62853-4  85293-3 0  9995,2 45557  53.0411   5.1556 0001449  43.7512 316.3631 15.96188533302887
STARLINK-1356,45564,53.05,0.0001509,15.06399644,546.1676137651812,548.2576842892577,1 45564U 20025AK  25279.08532345  .00000719  00000+0  67189-4 0  9999,2 45564  53.0500  60.6599 0001509  89.6347 270.4815 15.06399644302061
STARLINK-1357,45565,53.0592,0.0006237,15.27982538,477.5654469199826,486.1225872406894,1 45565U 20025AL  25278.65566502  .00091931  00000+0  32928-2 0  9991,2 45565  53.0592  51.9072 0006237 192.4562 167.6284 15.27982538302157
STARLINK-1361,45567,53.0572,0.0001277,15.0639536,546.3414100796317,548.1101477333641,1 45567U 20025AN  25279.10375110  .00000886  00000+0  78375-4 0  9994,2 45567  53.0572  60.5799 0001277  87.7302 272.3833 15.06395360302079
STARLINK-1363,45568,53.0554,0.0001444,15.06391221,546.2384402224761,548.238488656606,1 45568U 20025AP  25279.11852790 -.00001089  00000+0 -54248-4 0  9991,2 45568  53.0554  60.7546 0001444  85.7129 274.4025 15.06391221302060
STARLINK-1366,45569,53.058,7.7e-05,15.06440855,546.5531038797108,547.619588275008,1 45569U 20025AQ  25279.10742583  .00008492  00000+0  58764-3 0  9998,2 45569  53.0580  60.5618 0000770  23.7596 336.3429 15.06440855302063
STARLINK-1376,45570,53.058,2.88e-05,15.06416272,546.9622384486038,547.3611356529782,1 45570U 20025AR  25278.70197890 -.00010474  00000+0 -68502-3 0  9996,2 45570  53.0580  62.3848 0000288  20.6076 339.4925 15.06416272302008
STARLINK-1320,45572,53.0605,0.0008112,15.38557289,444.8354439076884,455.9140213426999,1 45572U 20025AT  25279.48205195  .00040840  00000+0  10607-2 0  9992,2 45572  53.0605   8.2278 0008112 266.9109  93.0966 15.38557289302850
STARLINK-1321,45573,53.0639,0.0002397,15.06381131,545.6093693977846,548.9294092208202,1 45573U 20025AU  25279.08625238  .00000951  00000+0  82810-4 0  9999,2 45573  53.0639  50.6594 0002397  91.5895 268.5369 15.06381131301900
STARLINK-1328,45576,53.0546,0.0005958,15.59624718,384.7106688411086,392.7740823050408,1 45576U 20025AX  25278.76180305  .00150129  00000+0  18210-2 0  9991,2 45576  53.0546  38.9171 0005958 296.7621  63.2781 15.59624718302359
STARLINK-1331,45578,53.0565,0.0001313,15.06392785,546.3243697932903,548.1429721314844,1 45578U 20025AZ  25279.06413191 -.00000290  00000+0 -57980-6 0  9995,2 45578  53.0565  50.7571 0001313  91.1251 268.9889 15.06392785302211
STARLINK-1333,45580,53.0523,0.0001346,15.06394164,546.2972901720559,548.1615988189142,1 45580U 20025BB  25279.13693118  .00001653  00000+0  12983-3 0  9998,2 45580  53.0523  60.4296 0001346  94.9963 265.1179 15.06394164302075
STARLINK-1335,45581,53.0514,0.0002105,15.06260349,546.1817252336323,549.0974771827405,1 45581U 20025BC  25278.67713881  .00031837  00000+0  21547-2 0  9999,2 45581  53.0514  52.4948 0002105  84.5919 275.5310 15.06260349302148
STARLINK-1337,45582,53.0552,0.0001,15.06400257,546.5182354933777,547.9033050474309,1 45582U 20025BD  25279.09731025 -.00004445  00000+0 -27971-3 0  9992,2 45582  53.0552  50.6100 0001000 100.8423 259.2679 15.06400257302204
STARLINK-1347,45586,53.0542,0.0005169,15.27524892,479.6674817866515,486.7607465684887,1 45586U 20025BH  25279.49048649  .00067221  00000+0  24534-2 0  9993,2 45586  53.0542  38.3913 0005169 217.7975 142.2661 15.27524892302401
STARLINK-1360,45588,53.0475,0.0005677,15.69829819,355.55900550218394,363.2087867276314,1 45588U 20025BK  25279.53846469  .00076095  00000+0  62359-3 0  9993,2 45588  53.0475 324.5879 0005677  28.0590 332.0732 15.69829819303456
STARLINK-1364,45589,53.053,0.0001528,15.06394159,546.1712638248036,548.2876558149246,1 45589U 20025BL  25278.76925402  .00006851  00000+0  47842-3 0  9996,2 45589  53.0530  52.0841 0001528  94.0908 266.0255 15.06394159302155
STARLINK-1365,45590,53.054,0.0001458,15.06409864,546.1716149519361,548.1910377759041,1 45590U 20025BM  25278.71856596  .00002198  00000+0  16636-3 0  9997,2 45590  53.0540  82.3083 0001458  89.2430 270.8726 15.06409864301740
STARLINK-1443,45660,53.0546,0.000187,15.06394756,545.9325869038012,548.5226732754545,1 45660U 20035D   25279.49999905  .00001639  00000+0  12893-3 0  9994,2 45660  53.0546  38.8021 0001870  89.0294 271.0909 15.06394756295499
STARLINK-1446,45663,53.0277,0.0003317,15.30755077,471.2855030911651,475.83091769374005,1 45663U 20035G   25279.53599032  .00015854  00000+0  53693-3 0  9996,2 45663  53.0277   6.1330 0003317 184.9542 175.1425 15.30755077295955
STARLINK-1448,45665,53.0556,0.0001307,15.06400165,546.3059092466601,548.1161952275143,1 45665U 20035J   25278.30944125  .00005305  00000+0  37478-3 0  9992,2 45665  53.0556  44.1442 0001307  89.9134 270.2005 15.06400165295309
STARLINK-1451,45668,53.0509,0.000106,15.06396821,546.4872131526317,547.9553891124715,1 45668U 20035M   25279.04297091 -.00001627  00000+0 -90398-4 0  9996,2 45668  53.0509  41.1712 0001060  95.3088 264.8022 15.06396821295426
STARLINK-1452,45669,53.0402,0.0007989,15.24188035,487.7351599168287,498.7142216263428,1 45669U 20035N   25279.46121001  .00061289  00000+0  24750-2 0  9995,2 45669  53.0402  23.5804 0007989 284.1155  75.8954 15.24188035295705
STARLINK-1453,45670,53.0544,0.0001744,15.06392978,546.0252948986708,548.4408639823787,1 45670U 20035P   25279.51752328  .00000745  00000+0  68930-4 0  9995,2 45670  53.0544   8.7274 0001744  95.5294 264.5894 15.06392978295805
STARLINK-1454,45671,53.055,0.0001764,15.06388641,546.0247342292478,548.4680094828382,1 45671U 20035Q   25279.06505628  .00000141  00000+0  28395-4 0  9996,2 45671  53.0550  40.7568 0001764  91.3019 268.8172 15.06388641295411
STARLINK-1456,45673,53.0541,0.0001348,15.0639413,546.2960092904987,548.1630881120291,1 45673U 20035S   25279.47786702 -.00002882  00000+0 -17466-3 0  9999,2 45673  53.0541  38.9022 0001348  97.1517 262.9625 15.06394130295498
STARLINK-1457,45674,53.054,0.000152,15.06411471,546.1237535615164,548.2290488354802,1 45674U 20035T   25279.48526036  .00010829  00000+0  74453-3 0  9990,2 45674  53.0540  38.8684 0001520  94.5296 265.5867 15.06411471295460
STARLINK-1458,45675,53.0542,0.0001361,15.06391022,546.2965306681526,548.1816180355909,1 45675U 20035U   25279.47419585 -.00001917  00000+0 -10985-3 0  9990,2 45675  53.0542  38.9172 0001361  93.1306 266.9839 15.06391022295458
STARLINK-1460,45676,53.0543,0.0001562,15.06382372,546.1838378623506,548.3473336301377,1 45676U 20035V   25279.51106615  .00002095  00000+0  15956-3 0  9992,2 45676  53.0543  38.7508 0001562  87.9422 272.1745 15.06382372295457
STARLINK-1392,45677,53.0529,0.0001466,15.0640238,546.1890085614223,548.2195186199078,1 45677U 20035W   25279.52211013  .00003377  00000+0  24547-3 0  9993,2 45677  53.0529  38.7019 0001466  82.8655 277.2500 15.06402380295495
STARLINK-1394,45679,53.0569,0.0001528,15.06393345,546.1737582536052,548.2901510061392,1 45679U 20035Y   25279.51934874  .00000330  00000+0  41053-4 0  9999,2 45679  53.0569  28.7136 0001528 115.9084 244.2063 15.06393345295637
STARLINK-1402,45685,53.0553,0.000178,15.0638663,546.0198160284281,548.4852547030177,1 45685U 20035AE  25279.55012530 -.00000933  00000+0 -43748-4 0  9990,2 45685  53.0553  23.0007 0001780  82.7513 277.3678 15.06386630295728
STARLINK-1404,45686,53.0573,0.000133,15.0638714,546.3298956661838,548.1720488668061,1 45686U 20035AF  25279.47881361 -.00001346  00000+0 -71523-4 0  9999,2 45686  53.0573  28.9035 0001330  96.7007 263.4133 15.06387140295639
STARLINK-1413,45689,53.0551,0.0001267,15.06384108,546.3828172241301,548.1377128910954,1 45689U 20035AJ  25279.56358532 -.00000957  00000+0 -45408-4 0  9991,2 45689  53.0551  28.5150 0001267  84.1521 275.9612 15.06384108295555
STARLINK-1417,45693,53.055,0.0001595,15.06394876,546.1226667049632,548.331857904639,1 45693U 20035AN  25279.55989125  .00000618  00000+0  60373-4 0  9993,2 45693  53.0550  28.5357 0001595  90.6839 269.4333 15.06394876295636
STARLINK-1420,45695,53.058,0.0001926,15.06380431,545.9377010703101,548.6053684378976,1 45695U 20035AQ  25279.49445729 -.00000763  00000+0 -32313-4 0  9991,2 45695  53.0580   8.8182 0001926  91.6619 268.4591 15.06380431295911
STARLINK-1422,45696,53.0527,0.0002262,15.06399279,545.6472533566621,548.7802820439692,1 45696U 20035AR  25279.57094870  .00001769  00000+0  13764-3 0  9991,2 45696  53.0527  28.4862 0002262  91.6831 268.4417 15.06399279295632
STARLINK-1351,45697,53.0556,0.0001764,15.06394227,546.0076168015712,548.4508860150672,1 45697U 20035AS  25279.48064882 -.00003875  00000+0 -24143-3 0  9997,2 45697  53.0556   8.8888 0001764 101.2876 258.8312 15.06394227295914
STARLINK-1398,45699,53.0519,0.0001704,15.4493075,430.42118112012395,432.74193320440463,1 45699U 20035AU  25279.39593803  .00027172  00000+0  57543-3 0  9993,2 45699  53.0519 336.2932 0001704 232.2047 127.8804 15.44930750296362
STARLINK-1400,45700,53.0583,0.0001723,15.06386535,546.0595818642505,548.4460711984739,1 45700U 20035AV  25279.52119625  .00001667  00000+0  13082-3 0  9998,2 45700  53.0583   8.7091 0001723 103.9037 256.2144 15.06386535295915
